{
    "links": {
        "self": "http://www.neowsapp.com/rest/v1/neo/3445632?api_key=iIulBulltgU6a56xZRHN4H3l9WmuAYTsLGpBGhQ2"
    },
    "id": "3445632",
    "neo_reference_id": "3445632",
    "name": "(2009 CD2)",
    "designation": "2009 CD2",
    "nasa_jpl_url": "http://ssd.jpl.nasa.gov/sbdb.cgi?sstr=3445632",
    "absolute_magnitude_h": 25.9,
    "estimated_diameter": {
        "kilometers": {
            "estimated_diameter_min": 0.0175612318,
            "estimated_diameter_max": 0.0392681082
        },
        "meters": {
            "estimated_diameter_min": 17.561231848,
            "estimated_diameter_max": 39.2681081809
        },
        "miles": {
            "estimated_diameter_min": 0.0109120402,
            "estimated_diameter_max": 0.0244000636
        },
        "feet": {
            "estimated_diameter_min": 57.6155918963,
            "estimated_diameter_max": 128.8323800441
        }
    },
    "is_potentially_hazardous_asteroid": false,
    "close_approach_data": [
        {
            "close_approach_date": "2009-02-10",
            "close_approach_date_full": "2009-Feb-10 04:22",
            "epoch_date_close_approach": 1234239720000,
            "relative_velocity": {
                "kilometers_per_second": "9.406072176",
                "kilometers_per_hour": "33861.8598335415",
                "miles_per_hour": "21040.4428504581"
            },
            "miss_distance": {
                "astronomical": "0.044446304",
                "lunar": "17.289612256",
                "kilometers": "6649072.40777248",
                "miles": "4131542.012041024"
            },
            "orbiting_body": "Earth"
        }
    ],
    "orbital_data": {
        "orbit_id": "7",
        "orbit_determination_date": "2017-04-06 09:01:23",
        "first_observation_date": "2009-02-04",
        "last_observation_date": "2009-02-05",
        "data_arc_in_days": 1,
        "observations_used": 17,
        "orbit_uncertainty": "9",
        "minimum_orbit_intersection": ".0170179",
        "jupiter_tisserand_invariant": "3.667",
        "epoch_osculation": "2454867.5",
        "eccentricity": ".5133946932228135",
        "semi_major_axis": "1.997370096194421",
        "inclination": "3.477632486622714",
        "ascending_node_longitude": "315.4779157216889",
        "orbital_period": "1031.065468565573",
        "perihelion_distance": ".9719308884062647",
        "perihelion_argument": "216.4509302488242",
        "aphelion_distance": "3.022809303982577",
        "perihelion_time": "2454895.854343102875",
        "mean_anomaly": "350.0999850851024",
        "mean_motion": ".3491533864487142",
        "equinox": "J2000",
        "orbit_class": {
            "orbit_class_type": "APO",
            "orbit_class_description": "Near-Earth asteroid orbits which cross the Earth’s orbit similar to that of 1862 Apollo",
            "orbit_class_range": "a (semi-major axis) > 1.0 AU; q (perihelion) < 1.017 AU"
        }
    },
    "is_sentry_object": false
}